CZ-2D R/B               
1 28738U 05024B   26161.01328436  .00055816  00000+0  48754-3 0  9997
2 28738  97.3493 180.0872 0004529  70.4609 289.7141 15.68777677154213
ALOS (DAICHI)           
1 28931U 06002A   26161.14778806  .00000932  00000+0  16352-3 0  9991
2 28931  98.1320 116.7373 0001721  60.0449 300.0927 14.70036068 87067
H-2A R/B                
1 28932U 06002B   26161.00147182  .00005783  00000+0  27969-3 0  9999
2 28932  98.2554 316.1817 0049647 287.4198  72.1609 15.17972195108433
RESURS-DK 1             
1 29228U 06021A   26160.96224564  .00002168  00000+0  12797-3 0  9990
2 29228  69.9339 358.2552 0006576 297.4803  62.5694 15.13185061101488
CZ-4B R/B               
1 29507U 06046C   26161.26444940  .00003908  00000+0  19479-3 0  9990
2 29507  97.5459 205.8928 0031244 308.0337  51.8077 15.17733470 74081
CZ-2C R/B               
1 31114U 07010B   26161.01507797  .00000066  00000+0  48964-4 0  9996
2 31114  98.4092 269.7170 0059439  26.8954 333.5284 14.20274593992825
COSMO-SKYMED 1          
1 31598U 07023A   26161.31754444  .00001944  00000+0  17386-3 0  9991
2 31598  97.8853 353.1166 0001027  84.7925 275.3414 14.97067663 28766
COSMOS 2428             
1 31792U 07029A   26161.27648136 -.00000163  00000+0 -61947-4 0  9995
2 31792  70.9373   8.9882 0007234 148.2749 211.8810 14.12929481977172
SL-16 R/B               
1 31793U 07029B   26161.27456332  .00000309  00000+0  18489-3 0  9993
2 31793  70.9762 337.7600 0002214 258.9828 279.1441 14.14851315978468
KORONAS-FOTON           
1 33504U 09003A   26161.15133858  .00010784  00000+0  22304-3 0  9990
2 33504  82.4293 179.5981 0010947 170.9533 189.1915 15.45577764960015
CZ-2C R/B               
1 37731U 11030B   26161.14304565  .00001149  00000+0  15000-3 0  9993
2 37731  97.8652 116.6566 0053534  50.4870 324.6686 14.81454046803783
H-2A R/B                
1 38341U 12025E   26161.19946434  .00002814  00000+0  25435-3 0  9991
2 38341  98.4813 135.7688 0044138  11.9184 348.3069 14.95677558762045
SHIJIAN-16 (SJ-16)      
1 39358U 13057A   26161.26853596  .00000738  00000+0  74402-4 0  9992
2 39358  74.9734   9.7875 0016918 246.7868 113.1539 14.92594323685314
SL-4 R/B                
1 39679U 14021B   26160.93440834  .00010610  00000+0  22098-3 0  9993
2 39679  51.6053 246.3003 0091579  79.6084 281.5208 15.41800711670499
ALOS-2                  
1 39766U 14029A   26159.54979360  .00001451  00000+0  20114-3 0  9994
2 39766  97.9210 256.8376 0001671  90.6305 269.5098 14.79472067650306
YAOGAN-29               
1 41038U 15069A   26161.29605671  .00000194  00000+0  30447-4 0  9994
2 41038  98.0034 189.9180 0002836  65.5401 294.6107 14.83078402569600
ASTRO-H (HITOMI)        
1 41337U 16012A   26161.16184048  .00002113  00000+0  11946-3 0  9996
2 41337  30.9976 119.5585 0009663 183.6893 176.3675 15.10480260566223
HXMT (HUIYAN)           
1 42758U 17034A   26161.29328628  .00004108  00000+0  20523-3 0  9994
2 42758  43.0133 221.4275 0030196 101.6771 258.7469 15.18431383496611
SAOCOM 1A               
1 43641U 18076A   26161.31743904 -.00000319  00000+0 -33503-4 0  9999
2 43641  97.8890 348.1661 0001480  77.7640 282.3738 14.82167350415082
H-2A R/B                
1 43682U 18084L   26161.19845376  .00019885  00000+0  42076-3 0  9995
2 43682  98.8593  38.5628 0024110  63.6016 296.7699 15.44885376420048
SAOCOM 1B               
1 46265U 20059A   26161.28120703  .00000640  00000+0  86879-4 0  9999
2 46265  97.8893 347.2251 0001505  82.8935 277.2450 14.82166203312465
CSS (TIANHE)            
1 48274U 21035A   26161.25787489  .00022027  00000+0  26248-3 0  9999
2 48274  41.4694   4.1634 0008406  21.6299 338.4893 15.60521167292083
COSMOS 2550             
1 48865U 21056A   26159.80793882  .00006310  00000+0  19790-3 0  9991
2 48865  67.1416 125.2525 0008705 266.0377  93.9783 15.33755463277435
CZ-2C R/B               
1 52794U 22058K   26160.43551996  .00028951  00000+0  32951-3 0  9998
2 52794  50.1846 203.8374 0032976 235.4973 124.2885 15.61324142224434
CZ-2C R/B               
1 54039U 22132E   26161.27377784  .00060330  00000+0  48250-3 0  9995
2 54039  97.2907 167.9934 0016852 105.6659 254.6465 15.70719752204866
GSLV R/B                
1 54149U 22138AN  26161.16694412  .00001855  00000+0  15709-3 0  9991
2 54149  87.3797 135.3419 0021835 167.8586 192.3177 14.97225780197767
XRISM                   
1 57800U 23137A   26161.12906816  .00004635  00000+0  25478-3 0  9991
2 57800  31.0029  45.3183 0007944 253.7122 106.2643 15.12404798151793
ACS3                    
1 59588U 24077B   26161.02715385  .00015930  00000+0  11908-1 0  9999
2 59588  97.1675  81.4142 0055842  68.3490 292.3611 13.93923945107040
CZ-8A R/B               
1 66004U 25231K   26161.06465393 -.00000025  00000+0  49613-4 0  9995
2 66004  50.0044  69.6181 0116467 198.9424 160.7141 14.30152912 33929
SZ-21 MODULE            
1 66515U 25246C   26161.24581289  .00042781  00000+0  26989-3 0  9995
2 66515  41.4742 350.5399 0007243 306.6997  53.3182 15.75798052 32643

ISS (ZARYA)             
1 25544U 98067A   26161.15832933  .00007673  00000+0  14376-3 0  9996
2 25544  51.6328 334.8807 0006746 152.8443 207.2900 15.49693861570666
POISK                   
1 36086U 09060A   26161.15832933  .00007673  00000+0  14376-3 0  9994
2 36086  51.6328 334.8807 0006746 152.8443 207.2900 15.49693861570760
CSS (TIANHE)            
1 48274U 21035A   26161.25787489  .00022027  00000+0  26248-3 0  9999
2 48274  41.4694   4.1634 0008406  21.6299 338.4893 15.60521167292083
ISS (NAUKA)             
1 49044U 21066A   26161.15832933  .00007673  00000+0  14376-3 0  9992
2 49044  51.6328 334.8807 0006746 152.8443 207.2900 15.49693861570768
FREGAT DEB              
1 49271U 11037PF  26151.14915702  .00018955  00000+0  30994-1 0  9992
2 49271  51.6227  53.0895 0914379 245.3590 104.9405 12.41880577222933
CSS (WENTIAN)           
1 53239U 22085A   26161.25787489  .00022027  00000+0  26248-3 0  9992
2 53239  41.4694   4.1634 0008406  21.6299 338.4893 15.60521167288232
CSS (MENGTIAN)          
1 54216U 22143A   26161.25787489  .00022027  00000+0  26248-3 0  9993
2 54216  41.4694   4.1634 0008406  21.6299 338.4893 15.60521167292154
HRC MONOBLOCK CAMERA    
1 66052U 98067XR  26161.15193164  .00077170  00000+0  55388-3 0  9998
2 66052  51.6262 315.2851 0001040 213.2981 146.7952 15.72962216 36890
SZ-21 MODULE            
1 66515U 25246C   26161.24581289  .00042781  00000+0  26989-3 0  9995
2 66515  41.4742 350.5399 0007243 306.6997  53.3182 15.75798052 32643
SOYUZ-MS 28             
1 66664U 25275A   26161.15832933  .00007673  00000+0  14376-3 0  9995
2 66664  51.6328 334.8807 0006746 152.8443 207.2900 15.49693861570765
DUPLEX                  
1 66906U 98067XS  26161.08026612  .00038423  00000+0  43417-3 0  9999
2 66906  51.6275 325.3486 0003998 172.9571 187.1479 15.62069255 29545
ISS OBJECT XY           
1 66912U 98067XY  26160.70979641  .00333394  53356-4  96769-3 0  9993
2 66912  51.6193 313.7327 0008061 285.4386  74.5730 15.92357812 29659
KNACKSAT-2              
1 67683U 98067XZ  26160.72570919  .00046495  00000+0  58122-3 0  9993
2 67683  51.6308 331.9912 0010077 182.3472 177.7476 15.59295239 19116
CORAL                   
1 67684U 98067YA  26161.15562100  .00183498  00000+0  12329-2 0  9998
2 67684  51.6236 324.3257 0009369 211.6560 148.3877 15.74046139 19255
GXIBA-1                 
1 67685U 98067YB  26161.18352720  .00056524  00000+0  66427-3 0  9995
2 67685  51.6292 329.0452 0011244 182.5331 177.5608 15.60815048 19191
UITMSAT-2               
1 67686U 98067YC  26160.69808645  .00072123  00000+0  75565-3 0  9999
2 67686  51.6281 330.3022 0007058 171.2090 188.9029 15.63715410 19135
LEOPARD                 
1 67687U 98067YD  26160.75846378  .00050671  00000+0  61159-3 0  9990
2 67687  51.6307 331.4683 0007462 163.0458 197.0785 15.60206922 19046
HMU-SAT2                
1 67688U 98067YE  26161.19229325  .00066939  00000+0  73953-3 0  9996
2 67688  51.6300 328.3611 0007030 168.7360 191.3792 15.62390331 19125
CREW DRAGON 12          
1 67796U 26031A   26161.15832933  .00007673  00000+0  14376-3 0  9993
2 67796  51.6328 334.8807 0006746 152.8443 207.2900 15.49693861570762
PROGRESS-MS 33          
1 68319U 26058A   26161.15832933  .00007673  00000+0  14376-3 0  9994
2 68319  51.6328 334.8807 0006746 152.8443 207.2900 15.49693861570764
CYGNUS NG-24            
1 68689U 26079A   26161.15832933  .00007673  00000+0  14376-3 0  9997
2 68689  51.6328 334.8807 0006746 152.8443 207.2900 15.49693861570764
PROGRESS-MS 34          
1 68837U 26093A   26161.15832933  .00007673  00000+0  14376-3 0  9998
2 68837  51.6328 334.8807 0006746 152.8443 207.2900 15.49693861570769
TIANZHOU-10             
1 69049U 26102A   26161.25787489  .00022027  00000+0  26248-3 0  9992
2 69049  41.4694   4.1634 0008406  21.6299 338.4893 15.60521167  4773
DRAGON CRS-34           
1 69103U 26107A   26161.15832933  .00007673  00000+0  14376-3 0  9991
2 69103  51.6328 334.8807 0006746 152.8443 207.2900 15.49693861570766
SHENZHOU-23 (SZ-23)     
1 69180U 26113A   26161.25787489  .00022027  00000+0  26248-3 0  9990
2 69180  41.4694   4.1634 0008406  21.6299 338.4893 15.60521167291889
